NORAD_CAT_ID,OBJECT_NAME,OBJECT_TYPE,EPOCH,MEAN_MOTION,ECCENTRICITY,INCLINATION,RA_OF_ASC_NODE,ARG_OF_PERICENTER,MEAN_ANOMALY,BSTAR,MEAN_MOTION_DOT,MEAN_MOTION_DDOT,TLE_LINE0,TLE_LINE1,TLE_LINE2,SEMIMAJOR_AXIS,PERIOD,APOGEE,PERIGEE,DECAYED
54787.0,STARLINK-5441,PAYLOAD,2024-06-19 17:42:50,15.08838566,0.0001188,53.2166,342.8276,92.4972,267.6157,0.00012113,1.64e-05,0.0,0 STARLINK-5441,1 54787U 22175AF  24171.73808008  .00001640  00000-0  12113-3 0  9999,2 54787  53.2166 342.8276 0001188  92.4972 267.6157 15.08838566 82968,6917.885,95.438,540.572,538.928,0.0
54787.0,STARLINK-5441,PAYLOAD,2024-06-20 04:50:31,15.08851816,0.0001158,53.2169,340.7446,92.6342,267.4782,0.00017791,2.546e-05,0.0,0 STARLINK-5441,1 54787U 22175AF  24172.20175123  .00002546  00000-0  17791-3 0  9990,2 54787  53.2169 340.7446 0001158  92.6342 267.4782 15.08851816 83031,6917.844,95.437,540.51,538.908,0.0
54787.0,STARLINK-5441,PAYLOAD,2024-06-20 11:12:04,15.08841702,0.0001721,53.2171,339.5561,80.0751,280.0435,0.00016209,2.293e-05,0.0,0 STARLINK-5441,1 54787U 22175AF  24172.46671829  .00002293  00000-0  16209-3 0  9994,2 54787  53.2171 339.5561 0001721  80.0751 280.0435 15.08841702 85232,6917.875,95.437,540.931,538.55,0.0
54787.0,STARLINK-5441,PAYLOAD,2024-06-20 20:44:23,15.08844384,0.000131,53.218,337.7705,92.3749,267.7393,0.00010659,1.409e-05,0.0,0 STARLINK-5441,1 54787U 22175AF  24172.86415601  .00001409  00000-0  10659-3 0  9993,2 54787  53.2180 337.7705 0001310  92.3749 267.7393 15.08844384 83130,6917.867,95.437,540.638,538.826,0.0
54787.0,STARLINK-5441,PAYLOAD,2024-06-21 11:02:51,15.08837551,0.0001199,53.2187,335.0935,99.4031,260.7096,0.00020228,2.933e-05,0.0,0 STARLINK-5441,1 54787U 22175AF  24173.46031943  .00002933  00000-0  20228-3 0  9999,2 54787  53.2187 335.0935 0001199  99.4031 260.7096 15.08837551 83221,6917.888,95.438,540.582,538.923,0.0
54787.0,STARLINK-5441,PAYLOAD,2024-06-21 14:13:37,15.08838929,0.0001227,53.2163,334.4994,90.15,269.9633,0.00010856,1.44e-05,0.0,0 STARLINK-5441,1 54787U 22175AF  24173.59279910  .00001440  00000-0  10856-3 0  9999,2 54787  53.2163 334.4994 0001227  90.1500 269.9633 15.08838929 85404,6917.884,95.438,540.597,538.9,0.0
54787.0,STARLINK-5441,PAYLOAD,2024-06-21 17:24:24,15.08839945,0.0001281,53.2176,333.9045,93.3115,266.8024,4.7405e-05,4.67e-06,0.0,0 STARLINK-5441,1 54787U 22175AF  24173.72527869  .00000467  00000-0  47405-4 0  9992,2 54787  53.2176 333.9045 0001281  93.3115 266.8024 15.08839945 85427,6917.881,95.438,540.632,538.859,0.0
54787.0,STARLINK-5441,PAYLOAD,2024-06-22 14:04:25,15.08837138,0.0001296,53.2176,330.0384,91.7985,268.3155,0.00010721,1.419e-05,0.0,0 STARLINK-5441,1 54787U 22175AF  24174.58640146  .00001419  00000-0  10721-3 0  9999,2 54787  53.2176 330.0384 0001296  91.7985 268.3155 15.08837138 85552,6917.889,95.438,540.651,538.858,0.0
54787.0,STARLINK-5441,PAYLOAD,2024-06-22 20:25:57,15.08837942,0.0001197,53.2174,328.8485,86.9952,273.1177,5.713e-05,6.21e-06,0.0,0 STARLINK-5441,1 54787U 22175AF  24174.85136128  .00000621  00000-0  57130-4 0  9999,2 54787  53.2174 328.8485 0001197  86.9952 273.1177 15.08837942 83433,6917.887,95.438,540.58,538.924,0.0
54787.0,STARLINK-5441,PAYLOAD,2024-06-23 13:55:12,15.08838809,0.0001188,53.2181,325.5781,99.7192,260.3934,0.00011401,1.527e-05,0.0,0 STARLINK-5441,1 54787U 22175AF  24175.58000141  .00001527  00000-0  11401-3 0  9991,2 54787  53.2181 325.5781 0001188  99.7192 260.3934 15.08838809 85706,6917.884,95.438,540.571,538.927,0.0
54787.0,STARLINK-5441,PAYLOAD,2024-06-23 20:16:44,15.08841392,0.0001204,53.2179,324.3882,103.3107,256.8019,0.00012635,1.724e-05,0.0,0 STARLINK-5441,1 54787U 22175AF  24175.84495953  .00001724  00000-0  12635-3 0  9998,2 54787  53.2179 324.3882 0001204 103.3107 256.8019 15.08841392 85748,6917.876,95.437,540.574,538.908,0.0
54787.0,STARLINK-5441,PAYLOAD,2024-06-24 08:59:49,15.08837805,0.0001321,53.2181,322.0093,110.2804,249.833,0.00011175,1.491e-05,0.0,0 STARLINK-5441,1 54787U 22175AF  24176.37488278  .00001491  00000-0  11175-3 0  9998,2 54787  53.2181 322.0093 0001321 110.2804 249.8330 15.08837805 83662,6917.887,95.438,540.666,538.838,0.0
54787.0,STARLINK-5441,PAYLOAD,2024-06-24 13:45:59,15.08836418,0.0001222,53.2178,321.1164,103.2397,256.8731,9.1441e-05,1.168e-05,0.0,0 STARLINK-5441,1 54787U 22175AF  24176.57360489  .00001168  00000-0  91441-4 0  9999,2 54787  53.2178 321.1164 0001222 103.2397 256.8731 15.08836418 85851,6917.891,95.438,540.602,538.911,0.0
54787.0,STARLINK-5441,PAYLOAD,2024-06-24 16:56:45,15.08835634,0.0001157,53.2176,320.5217,98.8831,261.2292,7.5857e-05,9.2e-06,0.0,0 STARLINK-5441,1 54787U 22175AF  24176.70608594  .00000920  00000-0  75857-4 0  9994,2 54787  53.2176 320.5217 0001157  98.8831 261.2292 15.08835634 85873,6917.894,95.438,540.559,538.958,0.0
54787.0,STARLINK-5441,PAYLOAD,2024-06-25 13:36:46,15.08838222,0.0001172,53.2174,316.655,92.0537,268.0589,6.2809e-05,7.12e-06,0.0,0 STARLINK-5441,1 54787U 22175AF  24177.56720672  .00000712  00000-0  62809-4 0  9993,2 54787  53.2174 316.6550 0001172  92.0537 268.0589 15.08838222 83848,6917.886,95.438,540.562,538.94,0.0
54787.0,STARLINK-5441,PAYLOAD,2024-06-25 15:12:09,15.08839313,0.0001196,53.2174,316.3577,91.0364,269.0766,7.1263e-05,8.46e-06,0.0,0 STARLINK-5441,1 54787U 22175AF  24177.63344588  .00000846  00000-0  71263-4 0  9991,2 54787  53.2174 316.3577 0001196  91.0364 269.0766 15.08839313 86019,6917.882,95.438,540.575,538.92,0.0
54787.0,STARLINK-5441,PAYLOAD,2024-06-26 16:38:19,15.08845722,0.0001224,53.2177,311.6017,85.9883,274.1249,0.00016529,2.344e-05,0.0,0 STARLINK-5441,1 54787U 22175AF  24178.69327933  .00002344  00000-0  16529-3 0  9991,2 54787  53.2177 311.6017 0001224  85.9883 274.1249 15.08845722 84011,6917.863,95.437,540.575,538.881,0.0
54787.0,STARLINK-5441,PAYLOAD,2024-06-27 13:18:20,15.08840518,0.0001662,53.2209,307.7297,78.9238,281.1941,-6.4513e-05,-1.315e-05,0.0,0 STARLINK-5441,1 54787U 22175AF  24179.55440565 -.00001315  00000-0 -64513-4 0  9990,2 54787  53.2209 307.7297 0001662  78.9238 281.1941 15.08840518 84144,6917.879,95.438,540.894,538.594,0.0
54787.0,STARLINK-5441,PAYLOAD,2024-06-27 16:29:06,15.08843203,0.0001084,53.2169,307.145,89.7181,270.3935,-1.4605e-05,-5.2e-06,0.0,0 STARLINK-5441,1 54787U 22175AF  24179.68688594 -.00000520  00000-0 -14605-4 0  9994,2 54787  53.2169 307.1450 0001084  89.7181 270.3935 15.08843203 86328,6917.871,95.437,540.485,538.986,0.0
54787.0,STARLINK-5441,PAYLOAD,2024-06-28 02:01:24,15.08858048,9.71e-05,53.2172,305.3617,91.895,268.2153,-0.00012778,-2.322e-05,0.0,0 STARLINK-5441,1 54787U 22175AF  24180.08431664 -.00002322  00000-0 -12778-3 0  9994,2 54787  53.2172 305.3617 0000971  91.8950 268.2153 15.08858048 84227,6917.825,95.436,540.362,539.019,0.0
54787.0,STARLINK-5441,PAYLOAD,2024-06-28 13:09:07,15.08846597,0.0001311,53.2188,303.2775,81.2103,278.9037,6.0084e-05,6.69e-06,0.0,0 STARLINK-5441,1 54787U 22175AF  24180.54800088  .00000669  00000-0  60084-4 0  9999,2 54787  53.2188 303.2775 0001311  81.2103 278.9037 15.08846597 84290,6917.86,95.437,540.632,538.818,0.0
54787.0,STARLINK-5441,PAYLOAD,2024-06-28 14:44:30,15.08847299,0.0001478,53.2178,302.9772,92.0686,268.0476,0.00014545,2.028e-05,0.0,0 STARLINK-5441,1 54787U 22175AF  24180.61423902  .00002028  00000-0  14545-3 0  9994,2 54787  53.2178 302.9772 0001478  92.0686 268.0476 15.08847299 86460,6917.858,95.437,540.746,538.701,0.0
54787.0,STARLINK-5441,PAYLOAD,2024-06-29 12:59:55,15.0881309,0.0001171,53.2177,298.8178,94.6549,265.4576,-0.00029607,-4.993e-05,0.0,0 STARLINK-5441,1 54787U 22175AF  24181.54162007 -.00004993  00000-0 -29607-3 0  9993,2 54787  53.2177 298.8178 0001171  94.6549 265.4576 15.08813090 84448,6917.963,95.439,540.638,539.018,0.0
54787.0,STARLINK-5441,PAYLOAD,2024-06-29 14:35:19,15.08813512,0.0001472,53.2175,298.52,112.2643,247.8505,-0.00028939,-4.887e-05,0.0,0 STARLINK-5441,1 54787U 22175AF  24181.60786007 -.00004887  00000-0 -28939-3 0  9991,2 54787  53.2175 298.5200 0001472 112.2643 247.8505 15.08813512 86611,6917.961,95.439,540.845,538.808,0.0
54787.0,STARLINK-5441,PAYLOAD,2024-06-30 11:15:15,15.08902865,0.0001241,53.2161,294.6507,121.5779,238.5334,0.00087577,0.00013701,0.0,0 STARLINK-5441,1 54787U 22175AF  24182.46892971  .00013701  00000-0  87577-3 0  9990,2 54787  53.2161 294.6507 0001241 121.5779 238.5334 15.08902865 84581,6917.688,95.434,540.412,538.695,0.0
54787.0,STARLINK-5441,PAYLOAD,2024-06-30 14:26:04,15.08829439,0.000126,53.2154,294.0571,95.597,264.5166,-0.0003394,-5.684e-05,0.0,0 STARLINK-5441,1 54787U 22175AF  24182.60144146 -.00005684  00000-0 -33940-3 0  9998,2 54787  53.2154 294.0571 0001260  95.5970 264.5166 15.08829439 84602,6917.913,95.438,540.649,538.906,0.0
54787.0,STARLINK-5441,PAYLOAD,2024-06-30 14:26:05,15.08807152,0.0001126,53.2161,294.0567,89.8133,270.2988,-0.00057888,-9.48e-05,0.0,0 STARLINK-5441,1 54787U 22175AF  24182.60145234 -.00009480  00000-0 -57888-3 0  9992,2 54787  53.2161 294.0567 0001126  89.8133 270.2988 15.08807152 86766,6917.981,95.44,540.625,539.067,0.0
54787.0,STARLINK-5441,PAYLOAD,2024-06-30 23:58:23,15.08835699,0.0001272,53.2157,292.2732,95.9574,264.1564,-0.00022282,-3.832e-05,0.0,0 STARLINK-5441,1 54787U 22175AF  24182.99887790 -.00003832  00000-0 -22282-3 0  9999,2 54787  53.2157 292.2732 0001272  95.9574 264.1564 15.08835699 84660,6917.894,95.438,540.638,538.879,0.0
54787.0,STARLINK-5441,PAYLOAD,2024-07-01 12:41:30,15.08810264,0.0001416,53.217,289.8969,106.9926,253.1221,-8.936e-05,-1.709e-05,0.0,0 STARLINK-5441,1 54787U 22175AF  24183.52881945 -.00001709  00000-0 -89360-4 0  9997,2 54787  53.2170 289.8969 0001416 106.9926 253.1221 15.08810264 84741,6917.971,95.439,540.816,538.857,0.0
54787.0,STARLINK-5441,PAYLOAD,2024-07-01 14:16:52,15.08813462,0.0001527,53.2175,289.6038,113.4954,246.6198,-5.0565e-05,-1.092e-05,0.0,0 STARLINK-5441,1 54787U 22175AF  24183.59505729 -.00001092  00000-0 -50565-4 0  9997,2 54787  53.2175 289.6038 0001527 113.4954 246.6198 15.08813462 86912,6917.962,95.439,540.883,538.77,0.0
